norad_id,name,regime,epoch,line1,line2,inclination,eccentricity,mean_motion,raan,arg_pericenter,mean_anomaly
43015,MIRATA,LEO,25143.68555211,1 43015U 17073C   25143.68555211  .00047874  00000-0  82737-3 0    13,2 43015  97.5421  37.7954 0086823 145.5488 215.1432 15.46613523408196,97.5421,0.0086823,15.46613523,37.7954,145.5488,215.1432
43015,MIRATA,LEO,25144.52663555,1 43015U 17073C   25144.52663555  .00041007  00000-0  70802-3 0    10,2 43015  97.5421  38.6712 0086704 142.5331 218.2006 15.46680823408323,97.5421,0.0086704,15.46680823,38.6712,142.5331,218.2006
43015,MIRATA,LEO,25144.65602996,1 43015U 17073C   25144.65602996  .00040392  00000-0  69727-3 0    16,2 43015  97.5421  38.8059 0086687 142.0633 218.6767 15.46690847408346,97.5421,0.0086687,15.46690847,38.8059,142.0633,218.6767
43015,MIRATA,LEO,25145.56176504,1 43015U 17073C   25145.56176504  .00045346  00000-0  78007-3 0    13,2 43015  97.5419  39.7488 0086638 138.8566 221.9259 15.46767651408489,97.5419,0.0086638,15.46767651,39.7488,138.8566,221.9259
43015,MIRATA,LEO,25145.62645831,1 43015U 17073C   25145.62645831  .00045527  00000-0  78300-3 0  4105,2 43015  97.5419  39.8162 0086627 138.6279 222.1575 15.46774531408496,97.5419,0.0086627,15.46774531,39.8162,138.6279,222.1575
43015,MIRATA,LEO,25145.69115140,1 43015U 17073C   25145.69115140  .00045514  00000-0  78261-3 0    15,2 43015  97.5420  39.8835 0086616 138.3976 222.3907 15.46781132408502,97.542,0.0086616,15.46781132,39.8835,138.3976,222.3907
43015,MIRATA,LEO,25147.95522313,1 43015U 17073C   25147.95522313  .00059417  00000-0  10110-2 0  4110,2 43015  97.5409  42.2409 0086364 130.4278 230.4547 15.47035715408850,97.5409,0.0086364,15.47035715,42.2409,130.4278,230.4547
43015,MIRATA,LEO,25148.60202717,1 43015U 17073C   25148.60202717  .00065740  00000-0  11144-2 0  4121,2 43015  97.5405  42.9138 0086243 128.1961 232.7095 15.47126487408952,97.5405,0.0086243,15.47126487,42.9138,128.1961,232.7095
43015,MIRATA,LEO,25148.66670539,1 43015U 17073C   25148.66670539  .00074980  00000-0  12689-2 0  4130,2 43015  97.5405  42.9811 0086235 127.9604 232.9477 15.47141059408961,97.5405,0.0086235,15.47141059,42.9811,127.9604,232.9477
43015,MIRATA,LEO,25150.21885930,1 43015U 17073C   25150.21885930  .00076566  00000-0  12855-2 0  4145,2 43015  97.5397  44.5978 0085954 122.4428 238.5171 15.47377557409209,97.5397,0.0085954,15.47377557,44.5978,122.4428,238.5171
43015,MIRATA,LEO,25150.60686023,1 43015U 17073C   25150.60686023  .00063964  00000-0  10736-2 0    16,2 43015  97.5394  45.0010 0085938 121.1415 239.8299 15.47430852409262,97.5394,0.0085938,15.47430852,45.001,121.1415,239.8299
43015,MIRATA,LEO,25150.67152582,1 43015U 17073C   25150.67152582  .00064675  00000-0  10851-2 0    19,2 43015  97.5394  45.0684 0085915 120.9114 240.0619 15.47441136409275,97.5394,0.0085915,15.47441136,45.0684,120.9114,240.0619
43015,MIRATA,LEO,25151.18883731,1 43015U 17073C   25151.18883731  .00064090  00000-0  10737-2 0  4156,2 43015  97.5398  45.6086 0085636 119.0086 241.9780 15.47509205409358,97.5398,0.0085636,15.47509205,45.6086,119.0086,241.978
43015,MIRATA,LEO,25151.44748384,1 43015U 17073C   25151.44748384  .00060420  00000-0  10113-2 0    11,2 43015  97.5402  45.8778 0085674 118.1646 242.8292 15.47543752409395,97.5402,0.0085674,15.47543752,45.8778,118.1646,242.8292
43015,MIRATA,LEO,25151.96476018,1 43015U 17073C   25151.96476018  .00062011  00000-0  10355-2 0    16,2 43015  97.5399  46.4172 0085599 116.3401 244.6671 15.47608586409477,97.5399,0.0085599,15.47608586,46.4172,116.3401,244.6671
43015,MIRATA,LEO,25152.09407610,1 43015U 17073C   25152.09407610  .00064125  00000-0  10700-2 0    15,2 43015  97.5398  46.5520 0085560 115.8697 245.1406 15.47624839409496,97.5398,0.008556,15.47624839,46.552,115.8697,245.1406
43015,MIRATA,LEO,25152.67597180,1 43015U 17073C   25152.67597180  .00227152  00000-0  37026-2 0  4162,2 43015  97.5397  47.1579 0085278 113.8978 247.1235 15.47791117409588,97.5397,0.0085278,15.47791117,47.1579,113.8978,247.1235
43015,MIRATA,LEO,25152.93457383,1 43015U 17073C   25152.93457383  .00086529  00000-0  14314-2 0  4178,2 43015  97.5397  47.4278 0085278 112.9698 248.0577 15.47810290409624,97.5397,0.0085278,15.4781029,47.4278,112.9698,248.0577
43015,MIRATA,LEO,25153.64569153,1 43015U 17073C   25153.64569153  .00097459  00000-0  16033-2 0  4181,2 43015  97.5398  48.1689 0085056 110.5032 250.5373 15.47946145409732,97.5398,0.0085056,15.47946145,48.1689,110.5032,250.5373
43015,MIRATA,LEO,25154.61530293,1 43015U 17073C   25154.61530293  .00137788  00000-0  22430-2 0    18,2 43015  97.5397  49.1800 0084783 107.0895 253.9663 15.48133933409880,97.5397,0.0084783,15.48133933,49.18,107.0895,253.9663
43015,MIRATA,LEO,25154.67993927,1 43015U 17073C   25154.67993927  .00132947  00000-0  21645-2 0  4193,2 43015  97.5396  49.2476 0084758 106.8680 254.1886 15.48146777409891,97.5396,0.0084758,15.48146777,49.2476,106.868,254.1886
43015,MIRATA,LEO,25155.19701835,1 43015U 17073C   25155.19701835  .00046198  00000-0  75906-3 0  4200,2 43015  97.5397  49.7873 0084665 104.9834 256.0808 15.48195269409979,97.5397,0.0084665,15.48195269,49.7873,104.9834,256.0808
43015,MIRATA,LEO,25155.58481383,1 43015U 17073C   25155.58481383  .00060309  00000-0  98726-3 0    16,2 43015  97.5398  50.1915 0084605 103.6831 257.3857 15.48245114410032,97.5398,0.0084605,15.48245114,50.1915,103.6831,257.3857
43015,MIRATA,LEO,25155.64944537,1 43015U 17073C   25155.64944537  .00059804  00000-0  97881-3 0  4213,2 43015  97.5398  50.2589 0084593 103.4574 257.6121 15.48253480410041,97.5398,0.0084593,15.4825348,50.2589,103.4574,257.6121
43015,MIRATA,LEO,25155.97259581,1 43015U 17073C   25155.97259581  .00079693  00000-0  12989-2 0    14,2 43015  97.5398  50.5964 0084531 102.3037 258.7693 15.48303122410095,97.5398,0.0084531,15.48303122,50.5964,102.3037,258.7693
43015,MIRATA,LEO,25156.48961895,1 43015U 17073C   25156.48961895  .00053306  00000-0  87034-3 0    16,2 43015  97.5399  51.1355 0084407 100.5018 260.5756 15.48360638410173,97.5399,0.0084407,15.48360638,51.1355,100.5018,260.5756
43015,MIRATA,LEO,25156.68349728,1 43015U 17073C   25156.68349728  .00058752  00000-0  95768-3 0    16,2 43015  97.5399  51.3378 0084360  99.8342 261.2446 15.48388714410201,97.5399,0.008436,15.48388714,51.3378,99.8342,261.2446
43015,MIRATA,LEO,25157.45898081,1 43015U 17073C   25157.45898081  .00053695  00000-0  87360-3 0    13,2 43015  97.5399  52.1471 0084157  97.1001 263.9828 15.48477920410325,97.5399,0.0084157,15.4847792,52.1471,97.1001,263.9828
43015,MIRATA,LEO,25157.65284472,1 43015U 17073C   25157.65284472  .00053654  00000-0  87218-3 0    15,2 43015  97.5399  52.3493 0084139  96.4322 264.6517 15.48502938410353,97.5399,0.0084139,15.48502938,52.3493,96.4322,264.6517
43015,MIRATA,LEO,25158.42827105,1 43015U 17073C   25158.42827105  .00056818  00000-0  92071-3 0    15,2 43015  97.5398  53.1587 0083953  93.6809 267.4046 15.48592756410475,97.5398,0.0083953,15.48592756,53.1587,93.6809,267.4046
43015,MIRATA,LEO,25158.68673606,1 43015U 17073C   25158.68673606  .00064193  00000-0  10380-2 0    15,2 43015  97.5398  53.4284 0083887  92.7965 268.2890 15.48629611410513,97.5398,0.0083887,15.48629611,53.4284,92.7965,268.289
43015,MIRATA,LEO,25159.13903401,1 43015U 17073C   25159.13903401  .00075293  00000-0  12134-2 0  4268,2 43015  97.5398  53.9009 0083729  91.1538 269.9306 15.48696867410581,97.5398,0.0083729,15.48696867,53.9009,91.1538,269.9306
43015,MIRATA,LEO,25159.46209304,1 43015U 17073C   25159.46209304  .00068440  00000-0  11026-2 0  4271,2 43015  97.5398  54.2377 0083640  90.0609 271.0226 15.48736903410639,97.5398,0.008364,15.48736903,54.2377,90.0609,271.0226
43015,MIRATA,LEO,25160.43121549,1 43015U 17073C   25160.43121549  .00071461  00000-0  11462-2 0    13,2 43015  97.5395  55.2494 0083354  86.6303 274.4478 15.48872093410784,97.5395,0.0083354,15.48872093,55.2494,86.6303,274.4478
43015,MIRATA,LEO,25161.46485460,1 43015U 17073C   25161.46485460  .00050244  00000-0  80537-3 0    18,2 43015  97.5394  56.3287 0083028  83.0073 278.0611 15.48996873410948,97.5394,0.0083028,15.48996873,56.3287,83.0073,278.0611
43015,MIRATA,LEO,25161.65865317,1 43015U 17073C   25161.65865317  .00051872  00000-0  83055-3 0    18,2 43015  97.5393  56.5310 0083012  82.3361 278.7307 15.49021217410975,97.5393,0.0083012,15.49021217,56.531,82.3361,278.7307
43015,MIRATA,LEO,25162.43381577,1 43015U 17073C   25162.43381577  .00062431  00000-0  99534-3 0    18,2 43015  97.5391  57.3405 0082781  79.5999 281.4569 15.49118485411093,97.5391,0.0082781,15.49118485,57.3405,79.5999,281.4569
43015,MIRATA,LEO,25162.69219267,1 43015U 17073C   25162.69219267  .00057431  00000-0  91527-3 0    10,2 43015  97.5389  57.6103 0082723  78.7142 282.3390 15.49152449411130,97.5389,0.0082723,15.49152449,57.6103,78.7142,282.339
43015,MIRATA,LEO,25163.14433770,1 43015U 17073C   25163.14433770  .00077810  00000-0  12345-2 0    11,2 43015  97.5386  58.0829 0082555  77.0461 283.9992 15.49217324411203,97.5386,0.0082555,15.49217324,58.0829,77.0461,283.9992
43015,MIRATA,LEO,25164.17773300,1 43015U 17073C   25164.17773300  .00174076  00000-0  27163-2 0  4314,2 43015  97.5382  59.1621 0082142  73.4369 287.5883 15.49410187411368,97.5382,0.0082142,15.49410187,59.1621,73.4369,287.5883
43015,MIRATA,LEO,25164.62979634,1 43015U 17073C   25164.62979634  .00148418  00000-0  23153-2 0    11,2 43015  97.5384  59.6340 0081824  71.8880 289.1260 15.49521143411439,97.5384,0.0081824,15.49521143,59.634,71.888,289.126
43015,MIRATA,LEO,25164.69437418,1 43015U 17073C   25164.69437418  .00139705  00000-0  21804-2 0    17,2 43015  97.5383  59.7014 0081791  71.6521 289.3604 15.49537206411442,97.5383,0.0081791,15.49537206,59.7014,71.6521,289.3604
43015,MIRATA,LEO,25165.21098107,1 43015U 17073C   25165.21098107  .00081221  00000-0  12731-2 0  4331,2 43015  97.5381  60.2417 0081547  69.7867 291.2129 15.49623124411522,97.5381,0.0081547,15.49623124,60.2417,69.7867,291.2129
